[{"OBJECT_NAME":"KUIPER-00033","OBJECT_ID":"2025-088Y","EPOCH":"2026-03-09T08:27:15.717600","MEAN_MOTION":14.83473272,"ECCENTRICITY":0.00010258,"INCLINATION":51.8992,"RA_OF_ASC_NODE":127.3567,"ARG_OF_PERICENTER":44.0483,"MEAN_ANOMALY":316.0562,"EPHEMERIS_TYPE":0,"CLASSIFICATION_TYPE":"U","NORAD_CAT_ID":63746,"ELEMENT_SET_NO":999,"REV_AT_EPOCH":4756,"BSTAR":0.00069892366,"MEAN_MOTION_DOT":5.577e-5,"MEAN_MOTION_DDOT":0},{"OBJECT_NAME":"GEESAT-6 02","OBJECT_ID":"2025-214C","EPOCH":"2026-03-09T22:45:51.302016","MEAN_MOTION":14.82997781,"ECCENTRICITY":0.00101592,"INCLINATION":49.9839,"RA_OF_ASC_NODE":48.2147,"ARG_OF_PERICENTER":195.3051,"MEAN_ANOMALY":164.7581,"EPHEMERIS_TYPE":0,"CLASSIFICATION_TYPE":"U","NORAD_CAT_ID":65714,"ELEMENT_SET_NO":999,"REV_AT_EPOCH":2477,"BSTAR":0.0003925129,"MEAN_MOTION_DOT":3.001e-5,"MEAN_MOTION_DDOT":0}]
